EYESAT A (AO-27)        
1 22825U 93061C   26176.18096079  .00000079  00000+0  46862-4 0  9995
2 22825  98.6877 243.5916 0009517  79.1910 281.0343 14.30944177708146
ITAMSAT (IO-26)         
1 22826U 93061D   26176.15798818  .00000084  00000+0  48577-4 0  9994
2 22826  98.6825 243.4869 0009921  64.2862 295.9344 14.31371311708450
RADIO ROSTO (RS15)      
1 23439U 94085A   26176.00931005 -.00000046  00000+0 -10565-3 0  9998
2 23439  64.8179 290.5658 0156204   2.4278 357.7371 11.27583413296784
JAS-2 (FO-29)           
1 24278U 96046B   26176.14811662 -.00000016  00000+0  17093-4 0  9990
2 24278  98.5234  23.9293 0350915  75.8351 288.1508 13.53274732474246
FORTE                   
1 24920U 97047A   26175.94033990  .00000151  00000+0  84170-4 0  9992
2 24920  69.9540 356.5079 0024637 267.9935  91.8366 14.27947855499793
TECHSAT 1B (GO-32)      
1 25397U 98043D   26174.94820125  .00000038  00000+0  36579-4 0  9995
2 25397  99.0070 167.8775 0001389 150.1095 210.0162 14.24429485452293
ISS (ZARYA)             
1 25544U 98067A   26176.18758125  .00009470  00000+0  17725-3 0  9993
2 25544  51.6326 260.4913 0004409 228.8642 131.1966 15.49415960572992
IMAGE                   
1 26113U 00017A   26172.42521202 -.00000086  00000+0  00000+0 0  9990
2 26113  94.2324 315.4279 7428984 287.3239   9.1864  1.68666410161572
CLUSTER II-FM7 (SAMBA)  
1 26410U 00041A   26177.06472445  .00005882  00000+0  00000+0 0  9994
2 26410 149.9012  52.3742 9061812 269.6784 359.6419  0.44870397 20352
CLUSTER II-FM8 (TANGO)  
1 26464U 00045B   26172.94229412  .00004849  00000+0  00000+0 0  9995
2 26464 150.1352  52.7746 9062813 269.8657   2.6673  0.44420336 20332
ODIN                    
1 26702U 01007A   26176.08925059  .00262742  00000+0  14705-2 0  9996
2 26702  97.3797 217.5522 0006632 132.9735 227.2089 15.78592061390648
OMNI-M1                 
1 26857U 01026A   26172.55979507 -.00000020  00000+0  00000+0 0  9993
2 26857  44.8291 244.2559 0014072  54.4534 305.7323  3.92401787205740
PCSAT (NO-44)           
1 26931U 01043C   26176.19152737  .00000086  00000+0  62978-4 0  9995
2 26931  67.0494 223.5692 0006049 265.0177  95.0235 14.31958480291592
PROBA-1                 
1 26958U 01049B   26176.16819001  .00003886  00000+0  25128-3 0  9997
2 26958  97.9602 184.9791 0056320  95.7794 264.9858 15.07528056344823
SAUDISAT 1C (SO-50)     
1 27607U 02058C   26176.17970424  .00000928  00000+0  12668-3 0  9997
2 27607  64.5519 104.2569 0075079 260.9817  98.2786 14.83062534265641
CORIOLIS                
1 27640U 03001A   26176.01879916  .00000092  00000+0  63760-4 0  9992
2 27640  98.7125 182.7840 0013835 185.5642 174.5383 14.19946790215339
CUTE-1 (CO-55)          
1 27844U 03031E   26175.97519230  .00000261  00000+0  13189-3 0  9992
2 27844  98.6736 184.4362 0010007 156.0422 204.1225 14.24339992192781
CUBESAT XI-IV (CO-57)   
1 27848U 03031J   26175.96755847  .00000227  00000+0  11865-3 0  9992
2 27848  98.6767 184.1351 0009537 174.0960 186.0333 14.23624582192483
MOZHAETS 4 (RS22)       
1 27939U 03042A   26176.23465326  .00000817  00000+0  13401-3 0  9999
2 27939  98.3476   0.8208 0010000 240.8202 230.4835 14.73478873216732
